OBJECT_NAME,OBJECT_ID,EPOCH,MEAN_MOTION,ECCENTRICITY,INCLINATION,RA_OF_ASC_NODE,ARG_OF_PERICENTER,MEAN_ANOMALY,EPHEMERIS_TYPE,CLASSIFICATION_TYPE,NORAD_CAT_ID,ELEMENT_SET_NO,REV_AT_EPOCH,BSTAR,MEAN_MOTION_DOT,MEAN_MOTION_DDOT
BSAT-4B,2020-056A,2020-09-08T11:38:58.494336,1.00338020,.0004303,0.0440,306.1230,9.7562,312.2846,0,U,46112,999,26,.00000E-0,-3.43E-6,0
MEV-2,2020-056B,2020-09-06T01:03:33.024672,1.89665302,.5679467,3.6163,121.2949,184.8189,113.1302,0,U,46113,999,42,.00000E+0,-8.5E-7,0
GALAXY 30,2020-056C,2020-09-09T01:20:01.536576,1.00272981,.0000519,0.0163,355.8041,224.9825,232.3236,0,U,46114,999,29,.00000E-0,-1.82E-6,0
ARIANE 5 DEB [SYLDA],2020-056D,2020-09-08T17:31:51.330144,2.28328403,.7267677,6.0478,114.9450,197.4140,110.3780,0,U,46115,999,54,.20646E-2,3.997E-5,0
ARIANE 5 R/B,2020-056E,2020-09-08T16:39:29.269728,2.28681443,.7268417,5.8145,117.4740,194.8132,119.6073,0,U,46116,999,55,.18735E-3,1.62E-6,0
STARLINK-1585,2020-057A,2020-09-09T06:00:00.999648,15.66239062,.0008205,52.9981,333.6315,284.8299,16.6846,0,U,46117,999,182,.23179E-3,2.3914E-4,0
STARLINK-1588,2020-057B,2020-09-09T06:00:00.999648,15.62776177,.0001099,53.0002,333.9901,57.3443,75.4526,0,U,46118,999,177,.28066E-3,2.5267E-4,0
STARLINK-1593,2020-057C,2020-09-09T12:00:00.999648,15.62826344,.0001315,52.9998,332.7577,51.5635,52.3699,0,U,46119,999,412,-.11590E-2,-1.05592E-3,0
STARLINK-1601,2020-057D,2020-09-09T12:00:00.999648,15.62788903,.0001494,52.9994,332.7468,60.0576,50.2930,0,U,46120,999,412,-.89761E-3,-8.2015E-4,0
STARLINK-1602,2020-057E,2020-09-09T12:00:00.999648,15.66238051,.0001183,52.9983,332.4109,51.3929,222.4922,0,U,46121,999,412,-.26401E-4,-3.335E-5,0
STARLINK-1604,2020-057F,2020-09-09T12:00:00.999648,15.62720674,.0004136,53.0001,332.7406,289.7546,183.9161,0,U,46122,999,412,-.40913E-5,-9.12E-6,0
STARLINK-1605,2020-057G,2020-09-09T06:00:00.999648,15.62804366,.0007584,53.0005,333.9521,273.5870,237.7477,0,U,46123,999,177,-.90449E-3,-8.2821E-4,0
STARLINK-1614,2020-057H,2020-09-09T12:00:00.999648,15.62769879,.0004367,52.9998,332.7340,282.2291,193.8210,0,U,46124,999,412,-.55556E-4,-5.628E-5,0
STARLINK-1618,2020-057J,2020-09-09T12:00:00.999648,15.62811039,.0001438,52.9996,332.7532,47.9620,54.6650,0,U,46125,999,412,-.66425E-3,-6.1039E-4,0
STARLINK-1619,2020-057K,2020-09-09T12:00:00.999648,15.62765476,.0001287,52.9992,332.7477,55.4023,50.9941,0,U,46126,999,412,.10455E-4,4.23E-6,0
STARLINK-1621,2020-057L,2020-09-09T06:00:00.999648,15.63874994,.0001998,52.9996,333.9445,319.8577,192.9744,0,U,46127,999,154,.15471E-3,1.4287E-4,0
STARLINK-1622,2020-057M,2020-09-09T06:00:00.999648,15.66082135,.0000996,52.9979,333.6314,47.2293,252.8440,0,U,46128,999,177,.20750E-3,2.1176E-4,0
STARLINK-1623,2020-057N,2020-09-09T06:00:00.999648,15.62361832,.0007513,53.0020,333.9906,303.2055,201.4945,0,U,46129,999,177,.18540E-2,1.7039E-3,0
STARLINK-1624,2020-057P,2020-09-09T12:00:00.999648,15.62714547,.0001813,53.0001,332.7262,313.7786,168.6922,0,U,46130,999,412,.26715E-4,1.908E-5,0
STARLINK-1625,2020-057Q,2020-09-09T06:00:00.999648,15.66268045,.0001529,52.9986,333.6353,65.5127,239.8183,0,U,46131,999,182,.22920E-3,2.3635E-4,0
STARLINK-1630,2020-057R,2020-09-09T12:00:00.999648,15.62788510,.0001254,53.0004,332.7491,50.2231,58.8354,0,U,46132,999,412,-.70071E-3,-6.4277E-4,0
STARLINK-1637,2020-057S,2020-09-09T06:00:00.999648,15.66276573,.0002280,52.9982,333.5996,309.4367,9.5331,0,U,46133,999,177,.19984E-3,2.0536E-4,0
STARLINK-1638,2020-057T,2020-09-09T06:00:00.999648,15.62776388,.0004689,53.0006,333.9892,281.9128,212.8797,0,U,46134,999,177,.26129E-3,2.3489E-4,0
STARLINK-1639,2020-057U,2020-09-09T06:00:00.999648,15.62737464,.0000992,52.9997,333.9441,59.5623,94.4115,0,U,46135,999,177,-.11957E-3,-1.146E-4,0
STARLINK-1643,2020-057V,2020-09-09T06:00:00.999648,15.62929345,.0001446,53.0016,333.9173,43.1186,137.1476,0,U,46136,999,177,-.14435E-1,-1.19782E-2,0
STARLINK-1586,2020-057W,2020-09-09T12:00:00.999648,15.66315341,.0001340,52.9996,332.3781,47.8148,239.6698,0,U,46137,999,412,-.17290E-4,-2.384E-5,0
STARLINK-1590,2020-057X,2020-09-09T12:00:00.999648,15.62753081,.0001610,52.9986,332.7589,60.5476,40.8762,0,U,46138,999,412,-.14988E-5,-6.72E-6,0
STARLINK-1592,2020-057Y,2020-09-09T12:00:00.999648,15.62785704,.0001368,53.0008,332.7298,56.5092,56.3257,0,U,46139,999,412,-.38675E-3,-3.5836E-4,0
STARLINK-1594,2020-057Z,2020-09-09T12:00:00.999648,15.64058858,.0004949,52.9990,332.7032,293.3802,194.8672,0,U,46140,999,412,-.11085E-3,-1.1225E-4,0
STARLINK-1596,2020-057AA,2020-09-09T12:00:00.999648,15.62827508,.0004910,52.9991,332.7194,282.7106,197.2280,0,U,46141,999,412,-.11825E-2,-1.07778E-3,0
